     3.00           N                   E                   RINEX VERSION / TYPE
BRD_USR             ESA                 20190111 041800  UTCPGM / RUN BY / DATE
 GAL   4.4500E+01  3.5156E-02 -2.0142E-03  0.0000E+00       IONOSPHERIC CORR
GAUT  3.7252902985E-09-1.776356839E-15 432000 2035 GSTB   0 TIME SYSTEM CORR
GPGA -2.8812792152E-09-7.993605777E-15 432000 2035 GSTB   0 TIME SYSTEM CORR
                                                            END OF HEADER
E30 2019 01 11 02 30 00 5.198255530559E-03-3.043965079996E-11 0.000000000000E+00
     9.500000000000E+01-1.500000000000E+00 2.794044954616E-09-2.973530373213E+00
    -2.011656761169E-07 3.104842035100E-04 9.153038263321E-06 5.440616786957E+03
     4.410000000000E+05-2.421438694000E-08-2.945098949478E+00-4.842877388000E-08
     9.877436714886E-01 1.590000000000E+02 5.425172068421E-01-5.369509375904E-09
    -3.896590880079E-10 2.580000000000E+02 2.035000000000E+03 0.000000000000E+00
     3.120000000000E+00 0.000000000000E+00-3.259629011154E-09 0.000000000000E+00
     4.417000000000E+05 0.000000000000E+00 0.000000000000E+00 0.000000000000E+00
E31 2019 01 11 02 30 00 9.357366361655E-04-9.691802915768E-12 0.000000000000E+00
     9.500000000000E+01 7.468750000000E+00 2.773686963767E-09 2.248900633087E+00
     2.346932888031E-07 2.370307920501E-04 9.192153811455E-06 5.440624305725E+03
     4.410000000000E+05 4.284083843231E-08-2.951146544562E+00-5.587935447693E-09
     9.897305292892E-01 1.592187500000E+02-1.518583147929E+00-5.325936132332E-09
    -4.503759028213E-10 2.580000000000E+02 2.035000000000E+03 0.000000000000E+00
     3.120000000000E+00 0.000000000000E+00 2.328306436539E-10 0.000000000000E+00
     4.417000000000E+05 0.000000000000E+00 0.000000000000E+00 0.000000000000E+00
E33 2019 01 11 02 30 00 8.478971431032E-04 4.263256414561E-14 0.000000000000E+00
     9.500000000000E+01 3.562500000000E+00 3.050841365503E-09 8.465743136411E-01
     1.173466444016E-07 3.685528645292E-04 1.359730958939E-06 5.440594295502E+03
     4.410000000000E+05 0.000000000000E+00-8.684938223338E-01-4.284083843231E-08
     9.851407203681E-01 3.242500000000E+02-1.442748918409E+00-5.845957793322E-09
     4.678766317969E-11 2.580000000000E+02 2.035000000000E+03 0.000000000000E+00
     3.120000000000E+00 5.600000000000E+01-8.149072527885E-09 0.000000000000E+00
     4.417000000000E+05 0.000000000000E+00 0.000000000000E+00 0.000000000000E+00
E36 2019 01 11 02 30 00 7.610875763930E-04-4.447997525858E-12 0.000000000000E+00
     9.500000000000E+01 1.128125000000E+01 3.069770725415E-09-1.392324794728E+00
     4.526227712631E-07 3.336366498843E-04 1.862645149231E-06 5.440594020844E+03
     4.410000000000E+05-8.009374141693E-08-8.684661834225E-01-4.470348358154E-08
     9.851484752969E-01 3.083437500000E+02-1.558363402971E+00-5.821671067396E-09
     3.392998474863E-11 2.580000000000E+02 2.035000000000E+03 0.000000000000E+00
     3.120000000000E+00 5.600000000000E+01 9.313225746155E-10 0.000000000000E+00
     4.417000000000E+05 0.000000000000E+00 0.000000000000E+00 0.000000000000E+00
E19 2019 01 11 02 30 00-9.217415936291E-06 3.552713678801E-13 0.000000000000E+00
     9.500000000000E+01 1.243750000000E+01 2.957623196878E-09 1.273631632715E+00
     5.848705768585E-07 1.318887807429E-04 1.159869134426E-05 5.440623081207E+03
     4.410000000000E+05-3.725290298462E-09 1.238852529901E+00 8.754432201385E-08
     9.581917505211E-01 8.965625000000E+01 2.393435495418E+00-5.444512500085E-09
     4.221604418198E-10 2.580000000000E+02 2.035000000000E+03 0.000000000000E+00
     3.120000000000E+00 0.000000000000E+00-8.614733815193E-09 0.000000000000E+00
     4.417500000000E+05 0.000000000000E+00 0.000000000000E+00 0.000000000000E+00
E07 2019 01 11 02 20 00-1.103106187657E-04-7.048583938740E-12 0.000000000000E+00
     9.400000000000E+01 1.218750000000E+01 3.179418149814E-09-1.172536232658E+00
     5.345791578293E-07 1.349636586383E-04 1.059286296368E-05 5.440620292664E+03
     4.404000000000E+05 5.587935447693E-09 1.242122526315E+00-5.029141902924E-08
     9.524623737667E-01 1.101562500000E+02-2.651405307959E-02-5.516658362393E-09
     3.307280618656E-10 5.210000000000E+02 2.035000000000E+03 0.000000000000E+00
     3.120000000000E+00 0.000000000000E+00 2.328306436539E-10 0.000000000000E+00
     4.417750000000E+05 0.000000000000E+00 0.000000000000E+00 0.000000000000E+00
E19 2019 01 11 02 30 00-9.217881597579E-06 3.126388037344E-13 0.000000000000E+00
     9.500000000000E+01 1.243750000000E+01 2.957623196878E-09 1.273631632715E+00
     5.848705768585E-07 1.318887807429E-04 1.159869134426E-05 5.440623081207E+03
     4.410000000000E+05-3.725290298462E-09 1.238852529901E+00 8.754432201385E-08
     9.581917505211E-01 8.965625000000E+01 2.393435495418E+00-5.444512500085E-09
     4.221604418198E-10 5.210000000000E+02 2.035000000000E+03 0.000000000000E+00
     3.120000000000E+00 0.000000000000E+00-8.614733815193E-09-9.080395102501E-09
     4.417750000000E+05 0.000000000000E+00 0.000000000000E+00 0.000000000000E+00
E07 2019 01 11 02 20 00-1.103110844269E-04-7.048583938740E-12 0.000000000000E+00
     9.400000000000E+01 1.218750000000E+01 3.179418149814E-09-1.172536232658E+00
     5.345791578293E-07 1.349636586383E-04 1.059286296368E-05 5.440620292664E+03
     4.404000000000E+05 5.587935447693E-09 1.242122526315E+00-5.029141902924E-08
     9.524623737667E-01 1.101562500000E+02-2.651405307959E-02-5.516658362393E-09
     3.307280618656E-10 2.580000000000E+02 2.035000000000E+03 0.000000000000E+00
     3.120000000000E+00 0.000000000000E+00 2.328306436539E-10 0.000000000000E+00
     4.418000000000E+05 0.000000000000E+00 0.000000000000E+00 0.000000000000E+00
E36 2019 01 11 02 30 00 7.610875763930E-04-4.447997525858E-12 0.000000000000E+00
     9.500000000000E+01 1.128125000000E+01 3.069770725415E-09-1.392324794728E+00
     4.526227712631E-07 3.336366498843E-04 1.862645149231E-06 5.440594020844E+03
     4.410000000000E+05-8.009374141693E-08-8.684661834225E-01-4.470348358154E-08
     9.851484752969E-01 3.083437500000E+02-1.558363402971E+00-5.821671067396E-09
     3.392998474863E-11 2.580000000000E+02 2.035000000000E+03 0.000000000000E+00
     3.120000000000E+00 5.600000000000E+01 9.313225746155E-10 0.000000000000E+00
     4.418000000000E+05 0.000000000000E+00 0.000000000000E+00 0.000000000000E+00
E36 2019 01 11 02 30 00 7.610883913003E-04-4.447997525858E-12 0.000000000000E+00
     9.500000000000E+01 1.128125000000E+01 3.069770725415E-09-1.392324794728E+00
     4.526227712631E-07 3.336366498843E-04 1.862645149231E-06 5.440594020844E+03
     4.410000000000E+05-8.009374141693E-08-8.684661834225E-01-4.470348358154E-08
     9.851484752969E-01 3.083437500000E+02-1.558363402971E+00-5.821671067396E-09
     3.392998474863E-11 5.210000000000E+02 2.035000000000E+03 0.000000000000E+00
     3.120000000000E+00 4.550000000000E+02 9.313225746155E-10 9.313225746155E-10
     4.418050000000E+05 0.000000000000E+00 0.000000000000E+00 0.000000000000E+00
E19 2019 01 11 02 30 00-9.217881597579E-06 3.126388037344E-13 0.000000000000E+00
     9.500000000000E+01 1.243750000000E+01 2.957623196878E-09 1.273631632715E+00
     5.848705768585E-07 1.318887807429E-04 1.159869134426E-05 5.440623081207E+03
     4.410000000000E+05-3.725290298462E-09 1.238852529901E+00 8.754432201385E-08
     9.581917505211E-01 8.965625000000E+01 2.393435495418E+00-5.444512500085E-09
     4.221604418198E-10 5.210000000000E+02 2.035000000000E+03 0.000000000000E+00
     3.120000000000E+00 0.000000000000E+00-8.614733815193E-09-9.080395102501E-09
     4.418350000000E+05 0.000000000000E+00 0.000000000000E+00 0.000000000000E+00
E31 2019 01 11 02 30 00 9.357370436192E-04-9.691802915768E-12 0.000000000000E+00
     9.500000000000E+01 7.468750000000E+00 2.773686963767E-09 2.248900633087E+00
     2.346932888031E-07 2.370307920501E-04 9.192153811455E-06 5.440624305725E+03
     4.410000000000E+05 4.284083843231E-08-2.951146544562E+00-5.587935447693E-09
     9.897305292892E-01 1.592187500000E+02-1.518583147929E+00-5.325936132332E-09
    -4.503759028213E-10 5.210000000000E+02 2.035000000000E+03 0.000000000000E+00
     3.120000000000E+00 0.000000000000E+00 2.328306436539E-10 0.000000000000E+00
     4.418950000000E+05 0.000000000000E+00 0.000000000000E+00 0.000000000000E+00
E31 2019 01 11 02 30 00 9.357366361655E-04-9.691802915768E-12 0.000000000000E+00
     9.500000000000E+01 7.468750000000E+00 2.773686963767E-09 2.248900633087E+00
     2.346932888031E-07 2.370307920501E-04 9.192153811455E-06 5.440624305725E+03
     4.410000000000E+05 4.284083843231E-08-2.951146544562E+00-5.587935447693E-09
     9.897305292892E-01 1.592187500000E+02-1.518583147929E+00-5.325936132332E-09
    -4.503759028213E-10 2.580000000000E+02 2.035000000000E+03 0.000000000000E+00
     3.120000000000E+00 0.000000000000E+00 2.328306436539E-10 0.000000000000E+00
     4.419000000000E+05 0.000000000000E+00 0.000000000000E+00 0.000000000000E+00
E01 2019 01 11 02 30 00-5.181849701330E-04-8.057554623520E-12 0.000000000000E+00
     9.500000000000E+01 1.109375000000E+01 2.716541726295E-09 2.203706305487E+00
     4.116445779800E-07 1.042290823534E-04 9.272247552872E-06 5.440617519379E+03
     4.410000000000E+05 4.656612873077E-08-2.948506600632E+00 5.960464477539E-08
     9.901917054362E-01 1.532812500000E+02-7.055584422326E-01-5.313792769369E-09
    -4.164459180726E-10 5.210000000000E+02 2.035000000000E+03 0.000000000000E+00
     3.120000000000E+00 0.000000000000E+00-4.656612873077E-09-5.122274160385E-09
     4.419250000000E+05 0.000000000000E+00 0.000000000000E+00 0.000000000000E+00
